[{"OBJECT_NAME":"STARLINK-34925","OBJECT_ID":"2025-179Q","EPOCH":"2026-03-09T16:58:10.617312","MEAN_MOTION":15.05651298,"ECCENTRICITY":0.00010161,"INCLINATION":97.6023,"RA_OF_ASC_NODE":113.0242,"ARG_OF_PERICENTER":122.52,"MEAN_ANOMALY":237.6125,"EPHEMERIS_TYPE":0,"CLASSIFICATION_TYPE":"U","NORAD_CAT_ID":65249,"ELEMENT_SET_NO":999,"REV_AT_EPOCH":3182,"BSTAR":0.00022494632,"MEAN_MOTION_DOT":3.187e-5,"MEAN_MOTION_DDOT":0},{"OBJECT_NAME":"CZ-6A R\/B","OBJECT_ID":"2022-031C","EPOCH":"2026-03-09T19:50:55.360896","MEAN_MOTION":15.07476837,"ECCENTRICITY":0.00174842,"INCLINATION":97.8104,"RA_OF_ASC_NODE":273.2347,"ARG_OF_PERICENTER":181.6412,"MEAN_ANOMALY":178.4761,"EPHEMERIS_TYPE":0,"CLASSIFICATION_TYPE":"U","NORAD_CAT_ID":52152,"ELEMENT_SET_NO":999,"REV_AT_EPOCH":21633,"BSTAR":0.00020233161,"MEAN_MOTION_DOT":3.012e-5,"MEAN_MOTION_DDOT":0}]
